[{"OBJECT_NAME":"SENTINEL-3B","OBJECT_ID":"2018-039A","EPOCH":"2026-03-09T22:56:26.429280","MEAN_MOTION":14.26736439,"ECCENTRICITY":9.653e-5,"INCLINATION":98.6227,"RA_OF_ASC_NODE":137.8858,"ARG_OF_PERICENTER":127.5232,"MEAN_ANOMALY":232.6036,"EPHEMERIS_TYPE":0,"CLASSIFICATION_TYPE":"U","NORAD_CAT_ID":43437,"ELEMENT_SET_NO":999,"REV_AT_EPOCH":40997,"BSTAR":7.6183716e-5,"MEAN_MOTION_DOT":1.41e-6,"MEAN_MOTION_DDOT":0},{"OBJECT_NAME":"FENGYUN 1C DEB","OBJECT_ID":"1999-025ESF","EPOCH":"2026-03-08T06:16:15.429216","MEAN_MOTION":14.10287281,"ECCENTRICITY":0.00786873,"INCLINATION":98.764,"RA_OF_ASC_NODE":79.8067,"ARG_OF_PERICENTER":123.8585,"MEAN_ANOMALY":237.0106,"EPHEMERIS_TYPE":0,"CLASSIFICATION_TYPE":"U","NORAD_CAT_ID":38496,"ELEMENT_SET_NO":999,"REV_AT_EPOCH":82226,"BSTAR":0.00094230944,"MEAN_MOTION_DOT":1.678e-5,"MEAN_MOTION_DDOT":0}]
